COSMOS 2534 [GLONASS-M] 
1 44299U 19030A   26192.63457279  .00000106  00000+0  00000+0 0  9999
2 44299  64.3707 191.7932 0013520 274.9315 259.4274  2.13102037 55441
BEIDOU-3 IGSO-2         
1 44337U 19035A   26193.30147231 -.00000114  00000+0  00000+0 0  9996
2 44337  55.2505 158.6428 0039635 216.5222 142.2404  1.00258388 25914
NAVSTAR 78 (USA 293)    
1 44506U 19056A   26192.58389041 -.00000086  00000+0  00000+0 0  9991
2 44506  55.6240 330.1738 0063286 198.1146 165.4440  2.00569835 50561
BEIDOU-3 M24            
1 44542U 19061A   26192.94232091  .00000085  00000+0  00000+0 0  9997
2 44542  54.3976 181.8931 0008595 359.4413   0.5552  1.86229198 46252
BEIDOU-3 M23            
1 44543U 19061B   26189.43788944  .00000122  00000+0  00000+0 0  9993
2 44543  54.3960 181.9796 0005860 339.6838 102.2392  1.86227401 46199
EUTELSAT 5 WEST B       
1 44624U 19067A   26193.31433816 -.00000040  00000+0  00000+0 0  9996
2 44624   0.0625 352.4508 0002974 120.5283 285.3853  1.00271422 24688
BEIDOU-3 M22            
1 44793U 19078A   26192.24557439 -.00000063  00000+0  00000+0 0  9999
2 44793  53.9127 298.9816 0005741  49.9615 310.1118  1.86227377 45096
BEIDOU-3 M21            
1 44794U 19078B   26189.16367219 -.00000063  00000+0  00000+0 0  9992
2 44794  53.8889 299.0507 0003790  48.5315 311.5256  1.86228045 45040
COSMOS 2544 [GLONASS-M] 
1 44850U 19088A   26192.43092138 -.00000019  00000+0  00000+0 0  9996
2 44850  65.5781  72.9223 0012343 255.3717 104.5561  2.13103003 51239
BEIDOU-3 M19            
1 44864U 19090A   26193.36018346 -.00000041  00000+0  00000+0 0  9991
2 44864  56.5807  61.9598 0016851 297.6742 193.4156  1.86231323 44708
BEIDOU-3 M20            
1 44865U 19090B   26193.25070971 -.00000041  00000+0  00000+0 0  9992
2 44865  56.5820  61.9977 0014577 312.6520 194.6235  1.86231220 44684
BEIDOU-3 G2             
1 45344U 20017A   26193.07978821 -.00000139  00000+0  00000+0 0  9995
2 45344   2.9118  47.6753 0002035  59.8730 291.1996  1.00269470 23503
COSMOS 2545 [GLONASS-M] 
1 45358U 20018A   26188.87178822 -.00000052  00000+0  00000+0 0  9990
2 45358  64.3418 311.6924 0009213 230.0449 129.8870  2.13102711 49103
BEIDOU-3 G3             
1 45807U 20040A   26193.29965231 -.00000353  00000+0  00000+0 0  9998
2 45807   2.5053  67.4742 0001746 327.4219 113.6211  1.00265303 22321
NAVSTAR 79 (USA 304)    
1 45854U 20041A   26192.41369499 -.00000052  00000+0  00000+0 0  9994
2 45854  56.6842  28.0045 0064962 204.6177 333.3873  2.00557807 44521
GALAXY 30 (G-30)        
1 46114U 20056C   26193.28226571  .00000039  00000+0  00000+0 0  9993
2 46114   0.0034 103.9227 0001947  10.6096 152.2522  1.00270910 21543
COSMOS 2547 [GLONASS-K] 
1 46805U 20075A   26192.34632256  .00000110  00000+0  00000+0 0  9998
2 46805  64.6015 191.6691 0009439 239.8003 120.1351  2.13100073 44424
NAVSTAR 80 (USA 309)    
1 46826U 20078A   26192.98973359  .00000097  00000+0  00000+0 0  9990
2 46826  53.9776 209.7728 0074476 207.7242   3.3972  2.00564829 42008
NAVSTAR 81 (USA 319)    
1 48859U 21054A   26192.95337247 -.00000088  00000+0  00000+0 0  9991
2 48859  55.1616 331.4645 0026382 228.5362 142.6846  2.00567154 37253
QZS-1R (MICHIBIKI-1R)   
1 49336U 21096A   26191.59113988 -.00000288  00000+0  00000+0 0  9993
2 49336  37.5070  79.2376 0754836 272.1562 282.0570  1.00246773 17249
GSAT0223 (GALILEO 27)   
1 49809U 21116A   26192.62286947 -.00000086  00000+0  00000+0 0  9998
2 49809  57.1523 341.0161 0002390 195.7836 160.7891  1.70475848 28594
GSAT0224 (GALILEO 28)   
1 49810U 21116B   26191.27355816 -.00000080  00000+0  00000+0 0  9996
2 49810  57.1533 341.0513 0001790 180.2049 180.8962  1.70475962 28607
COSMOS 2557 [GLONASS-K] 
1 52984U 22075A   26192.04119223 -.00000063  00000+0  00000+0 0  9994
2 52984  64.2833 313.6457 0010777 271.9721  87.9097  2.13102395 31220
COSMOS 2559 [GLONASS-K] 
1 54031U 22130A   26192.79940770 -.00000064  00000+0  00000+0 0  9993
2 54031  64.2551 313.7009 0013043 180.7023 179.3009  2.13101617 29218
COSMOS 2564 [GLONASS-M] 
1 54377U 22161A   26192.64257148  .00000106  00000+0  00000+0 0  9990
2 54377  64.7436 191.8998 0012250 225.0518 134.8769  2.13101969 28152
NAVSTAR 82 (USA 343)    
1 55268U 23009A   26193.13416450  .00000020  00000+0  00000+0 0  9995
2 55268  55.1239 147.5384 0006213 321.0542 219.3339  2.00569737 25741
BEIDOU-3 G4             
1 56564U 23066A   26193.35253189 -.00000278  00000+0  00000+0 0  9996
2 56564   0.4629 338.0719 0004867 188.0992  31.0340  1.00273421 11645
NVS-01 (IRNSS-1J)       
1 56759U 23076A   26193.30346566 -.00000333  00000+0  00000+0 0  9992
2 56759   2.1091 243.2229 0003545   7.3934 278.3122  1.00265965 11364
COSMOS 2569 [GLONASS-K2]
1 57517U 23114A   26192.18560794 -.00000021  00000+0  00000+0 0  9998
2 57517  65.3157  71.8115 0009809 296.2031  63.7608  2.13103691 22770
BEIDOU-3 M28            
1 58654U 23207A   26192.99938589 -.00000044  00000+0  00000+0 0  9999
2 58654  55.7747  61.4661 0002514   3.1911 356.8781  1.86229629 17300
BEIDOU-3 M26            
1 58655U 23207B   26191.72295872 -.00000047  00000+0  00000+0 0  9994
2 58655  55.7759  61.4958 0002139 324.4555  35.5938  1.86229637 17268
